[{"OBJECT_NAME":"STARLINK-35231","OBJECT_ID":"2025-221AC","EPOCH":"2026-03-09T08:16:26.114880","MEAN_MOTION":15.30192437,"ECCENTRICITY":0.00012111,"INCLINATION":53.1583,"RA_OF_ASC_NODE":90.4348,"ARG_OF_PERICENTER":83.8226,"MEAN_ANOMALY":276.2913,"EPHEMERIS_TYPE":0,"CLASSIFICATION_TYPE":"U","NORAD_CAT_ID":65849,"ELEMENT_SET_NO":999,"REV_AT_EPOCH":2602,"BSTAR":0.00069694266,"MEAN_MOTION_DOT":0.00020334,"MEAN_MOTION_DDOT":0},{"OBJECT_NAME":"CZ-4B R\/B","OBJECT_ID":"2010-051C","EPOCH":"2026-03-09T16:48:37.977120","MEAN_MOTION":15.17426017,"ECCENTRICITY":0.00758037,"INCLINATION":97.7974,"RA_OF_ASC_NODE":110.8647,"ARG_OF_PERICENTER":95.044,"MEAN_ANOMALY":265.9451,"EPHEMERIS_TYPE":0,"CLASSIFICATION_TYPE":"U","NORAD_CAT_ID":37181,"ELEMENT_SET_NO":999,"REV_AT_EPOCH":84355,"BSTAR":0.00029718512,"MEAN_MOTION_DOT":6.328e-5,"MEAN_MOTION_DDOT":0}]
